[{"OBJECT_NAME":"STARLINK-36194","OBJECT_ID":"2025-299AE","EPOCH":"2026-03-09T22:00:01.999584","MEAN_MOTION":15.28417878,"ECCENTRICITY":0.00024386,"INCLINATION":43.0007,"RA_OF_ASC_NODE":167.6728,"ARG_OF_PERICENTER":278.61,"MEAN_ANOMALY":1.4721,"EPHEMERIS_TYPE":0,"CLASSIFICATION_TYPE":"U","NORAD_CAT_ID":67130,"ELEMENT_SET_NO":999,"REV_AT_EPOCH":590,"BSTAR":-0.00037391289,"MEAN_MOTION_DOT":-0.00010807,"MEAN_MOTION_DDOT":0},{"OBJECT_NAME":"POEM","OBJECT_ID":"2022-072E","EPOCH":"2026-03-08T08:06:01.299456","MEAN_MOTION":15.22764653,"ECCENTRICITY":0.00236837,"INCLINATION":9.9515,"RA_OF_ASC_NODE":116.6548,"ARG_OF_PERICENTER":142.2805,"MEAN_ANOMALY":217.9074,"EPHEMERIS_TYPE":0,"CLASSIFICATION_TYPE":"U","NORAD_CAT_ID":52939,"ELEMENT_SET_NO":999,"REV_AT_EPOCH":20410,"BSTAR":0.00045784559,"MEAN_MOTION_DOT":0.00012084,"MEAN_MOTION_DDOT":0}]
